IRIDIUM 57              
1 25273U 98019B   25033.11143117  .00000836  00000+0  28284-3 0  9991
2 25273  86.3977 201.7925 0002040  93.2855 266.8575 14.35712439405619
IRIDIUM 63              
1 25286U 98021B   25032.76146128  .00001062  00000+0  35659-3 0  9999
2 25286  86.4027 138.9369 0002005  90.2220 269.9207 14.36360008404401
IRIDIUM 69              
1 25319U 98026A   25032.42372335  .00001401  00000+0  43251-3 0  9999
2 25319  86.4032 152.7611 0004302 104.1755 255.9922 14.40725601403517
IRIDIUM 71              
1 25320U 98026B   25032.38012284  .00001192  00000+0  36547-3 0  9997
2 25320  86.4027 147.5008 0003211 135.6993 224.4464 14.40946949404036
IRIDIUM 73              
1 25344U 98032C   25033.15656811  .00001419  00000+0  35088-3 0  9997
2 25344  86.4404 104.1854 0002910  94.2366 265.9172 14.51401748411273
IRIDIUM 82              
1 25467U 98051A   25032.80691928  .00041245  00000+0  14818-2 0  9991
2 25467  86.3746 175.8146 0101789  87.9524 273.3374 15.23614996403285
